ONEWEB-0386             
1 49312U 21090AK  22096.58334491 -.00031675  00000+0 -32052-2 0  9994
2 49312  87.2082 231.8083 0003107  55.9455  79.2420 14.91269262  3556
ONEWEB-0387             
1 49313U 21090AL  22096.58334491 -.00030100  00000+0 -30456-2 0  9993
2 49313  87.2088 231.8044 0004842  73.5599 283.6577 14.91259543  3546
ONEWEB-0388             
1 49314U 21090AM  22096.58334491 -.00043672  00000+0 -10961+0 0  9998
2 49314  87.9164 249.5211 0001615  97.1726  89.8818 13.19745157  3285
ONEWEB-0389             
1 50469U 21132A   22096.58334491  .00033864  00000+0  33044-2 0  9998
2 50469  87.2184 320.7978 0000514 351.5310   9.1578 14.92278094 16339
ONEWEB-0390             
1 50470U 21132B   22096.91667824  .00027354  00000+0  26708-2 0  9992
2 50470  87.2228 320.7247 0002436  23.7902 129.9745 14.92281955 16370
ONEWEB-0391             
1 50471U 21132C   22096.91667824  .00028807  00000+0  28118-2 0  9994
2 50471  87.2171 320.6543 0002000  36.3850  43.8965 14.92288634 16385
ONEWEB-0392             
1 50472U 21132D   22096.91667824  .00023560  00000+0  23015-2 0  9997
2 50472  87.2213 320.7135 0000488 167.9174  67.5545 14.92278965 16382
ONEWEB-0393             
1 50473U 21132E   22096.58334491  .00039747  00000+0  38736-2 0  9992
2 50473  87.2201 320.8071 0000355 332.8463 213.3331 14.92299442  3571
ONEWEB-0394             
1 50474U 21132F   22096.91667824  .00023494  00000+0  22949-2 0  9990
2 50474  87.2230 320.7430 0002855  39.9140 217.9287 14.92279490 16368
ONEWEB-0395             
1 50475U 21132G   22096.91667824  .00009940  00000+0  96981-2 0  9998
2 50475  87.9124 325.7930 0016018 324.2402 130.4064 13.79074750 16004
ONEWEB-0396             
1 50476U 21132H   22096.91667824  .00027665  00000+0  27020-2 0  9991
2 50476  87.2266 320.7809 0001359 201.2207 183.5665 14.92270129 16363
ONEWEB-0397             
1 50477U 21132J   22096.58334491  .00038498  00000+0  37529-2 0  9997
2 50477  87.2273 320.9050 0002030  22.6682 209.7784 14.92293603  3553
ONEWEB-0398             
1 50478U 21132K   22096.91667824  .00000015  00000+0  00000+0 0  9999
2 50478  87.8926 325.8279 0019697 327.0954   3.0547 13.68409884 15976
ONEWEB-0399             
1 50479U 21132L   22096.91667824  .00000015  00000+0  00000+0 0  9990
2 50479  87.9053 325.7952 0019057 328.4250 268.6478 13.70467044 15966
ONEWEB-0400             
1 50480U 21132M   22096.91667824  .00027627  00000+0  26949-2 0  9993
2 50480  87.2221 320.7031 0001055  47.4939  94.5105 14.92319771 16380
ONEWEB-0401             
1 50481U 21132N   22096.58334491  .00034601  00000+0  33776-2 0  9994
2 50481  87.2246 320.8683 0002563  48.1383 337.9592 14.92257431  3551
ONEWEB-0402             
1 50482U 21132P   22096.58334491  .00039933  00000+0  38909-2 0  9991
2 50482  87.2249 320.8732 0002431  37.0514 118.0000 14.92305326  3578
ONEWEB-0403             
1 50483U 21132Q   22096.58334491  .00038477  00000+0  37497-2 0  9995
2 50483  87.2221 320.8423 0003098  73.8012 152.0914 14.92304167  3559
ONEWEB-0404             
1 50484U 21132R   22096.91667824  .00013931  00000+0  13286-1 0  9999
2 50484  87.8884 325.7590 0019495 322.5857 325.8989 13.80384456 15975
ONEWEB-0405             
1 50485U 21132S   22096.58334491  .00040843  00000+0  39803-2 0  9990
2 50485  87.2998 321.4938 0001319 155.0884 346.5581 14.92294718  3565
ONEWEB-0406             
1 50486U 21132T   22096.58334491  .00035467  00000+0  34567-2 0  9999
2 50486  87.2270 320.8924 0001257 219.4150 198.4384 14.92318221  3559
ONEWEB-0407             
1 50487U 21132U   22096.58334491  .00035303  00000+0  34442-2 0  9991
2 50487  87.2185 320.7970 0001861 167.5057 141.7520 14.92277331  3565
ONEWEB-0409             
1 50488U 21132V   22096.91667824  .00000015  00000+0  00000+0 0  9990
2 50488  87.9156 325.8351 0020102 327.8828 273.1863 13.67343672 15977
ONEWEB-0412             
1 50489U 21132W   22096.91667824  .00027136  00000+0  26483-2 0  9990
2 50489  87.2234 320.7438 0000735  43.1335 107.2750 14.92302981 16430
ONEWEB-0413             
1 50490U 21132X   22096.91667824  .00024204  00000+0  23618-2 0  9992
2 50490  87.2173 320.6487 0002972  21.7410 209.4114 14.92318601 16398
ONEWEB-0414             
1 50491U 21132Y   22096.58334491  .00036239  00000+0  35334-2 0  9996
2 50491  87.2216 320.8370 0001680 193.6671  94.0286 14.92297202  3570
ONEWEB-0417             
1 50492U 21132Z   22096.58334491  .00034542  00000+0  33704-2 0  9991
2 50492  87.2248 320.8774 0001886 205.7705 145.0837 14.92276366  3550
ONEWEB-0418             
1 50493U 21132AA  22096.58334491  .00038389  00000+0  37452-2 0  9999
2 50493  87.2282 320.9284 0001988   4.8485 232.0573 14.92263667  3556
ONEWEB-0419             
1 50494U 21132AB  22096.58334491  .00036768  00000+0  35886-2 0  9998
2 50494  87.2168 320.7731 0001962 178.8260 268.1108 14.92254408  3546
ONEWEB-0420             
1 50495U 21132AC  22096.58334491  .00036715  00000+0  35784-2 0  9998
2 50495  87.2111 320.6994 0002990  34.9477  45.4574 14.92308131  3578
ONEWEB-0421             
1 50496U 21132AD  22096.58334491  .00034159  00000+0  33312-2 0  9994
2 50496  87.2143 320.7348 0003593  56.2967 286.1908 14.92296224  3540
ONEWEB-0424             
1 50497U 21132AE  22096.58334491  .00038864  00000+0  37914-2 0  9994
2 50497  87.2313 320.9540 0000071 333.2515 264.4951 14.92263300  3547
ONEWEB-0426             
1 50498U 21132AF  22096.58334491  .00038307  00000+0  37362-2 0  9994
2 50498  87.2185 320.7935 0001767  89.9901 142.9021 14.92274546  3551
ONEWEB-0427             
1 50499U 21132AG  22096.91667824  .00029075  00000+0  28351-2 0  9991
2 50499  87.2123 320.5951 0002319 122.6721 320.3137 14.92326502 16407
ONEWEB-0429             
1 50500U 21132AH  22096.58334491  .00038681  00000+0  37700-2 0  9999
2 50500  87.2155 320.7403 0003226  42.1597 192.2782 14.92298369  3579
ONEWEB-0430             
1 50501U 21132AJ  22096.58334491  .00039406  00000+0  38401-2 0  9995
2 50501  87.2290 320.9334 0000588 152.2662 353.1687 14.92304193  3552
ONEWEB-0432             
1 50502U 21132AK  22096.58334491  .00036732  00000+0  35804-2 0  9999
2 50502  87.2142 320.7387 0002994  14.5388  64.6223 14.92304996  3565
ONEWEB-0440             
1 50503U 21132AL  22096.58334491  .00039754  00000+0  38730-2 0  9998
2 50503  87.2176 320.7703 0002687  40.6252 116.3370 14.92310981  3563
ONEWEB-0450             
1 50504U 21132AM  22096.58334491  .00034064  00000+0  33251-2 0  9991
2 50504  87.2270 320.9015 0000607  76.8132 293.6213 14.92263863  3555
ONEWEB-0410             
1 51622U 22012A   22096.58334491  .00066283  00000+0  62421-2 0  9990
2 51622  87.1889 342.2448 0001264  75.6094 339.4539 14.93520372  3577
ONEWEB-0411             
1 51623U 22012B   22096.91667824 -.01162069  00000+0 -36880+0 0  9996
2 51623  87.4789 343.4477 0019352  64.7159 240.9819 14.43239503  9529
ONEWEB-0415             
1 51624U 22012C   22096.58334491 -.01098416  00000+0 -33781+0 0  9992
2 51624  87.4813 343.5607 0019668  64.0564  63.4142 14.44600354  3547
ONEWEB-0416             
1 51625U 22012D   22096.83334491 -.01197847  00000+0 -34438+0 0  9999
2 51625  87.5075 343.4529 0017420  62.9216 231.1700 14.48144122  9546
ONEWEB-0422             
1 51626U 22012E   22096.83334491 -.00056390  00000+0 -53956-2 0  9995
2 51626  87.2445 342.4226 0004038 112.9827  46.6326 14.93620593  9592
ONEWEB-0423             
1 51627U 22012F   22096.83334491 -.00054618  00000+0 -52297-2 0  9994
2 51627  87.1901 342.1667 0002332 100.3597 215.3385 14.93588231  9609
ONEWEB-0425             
1 51628U 22012G   22096.58334491 -.01052351  00000+0 -30446+0 0  9999
2 51628  87.4954 343.5384 0016919  49.5182 110.4485 14.47962125  3520
ONEWEB-0428             
1 51629U 22012H   22096.58334491 -.01089804  00000+0 -34185+0 0  9997
2 51629  87.4757 343.5497 0018472  65.4409 244.2918 14.43620444  3520
ONEWEB-0431             
1 51630U 22012J   22096.58334491 -.01083444  00000+0 -30373+0 0  9998
2 51630  87.4999 343.5330 0017921  50.3173 187.7407 14.49022661  3522
ONEWEB-0434             
1 51631U 22012K   22096.83334491 -.01194653  00000+0 -35350+0 0  9992
2 51631  87.4969 343.4758 0015468  46.9916 337.2286 14.46788701  9538
ONEWEB-0435             
1 51632U 22012L   22096.58334491 -.01088440  00000+0 -32992+0 0  9990
2 51632  87.4827 343.5533 0018803  61.8564 130.9990 14.45291977  3543
ONEWEB-0436             
1 51633U 22012M   22096.83334491 -.00051567  00000+0 -49329-2 0  9993
2 51633  87.1863 342.1448 0002350  44.8890  27.4756 14.93609814  9614
ONEWEB-0438             
1 51634U 22012N   22096.58334491 -.01068050  00000+0 -30188+0 0  9992
2 51634  87.5019 343.5228 0019851  60.5916 352.1006 14.49075572  3553
ONEWEB-0439             
1 51635U 22012P   22096.58334491 -.01081095  00000+0 -31122+0 0  9996
2 51635  87.4966 343.5322 0015825  45.6696 165.4135 14.47783574  3526
ONEWEB-0442             
1 51636U 22012Q   22096.83334491 -.00054107  00000+0 -51769-2 0  9990
2 51636  87.1838 342.1263 0003406 113.0668  18.9611 14.93612132  9611
ONEWEB-0443             
1 51637U 22012R   22096.83334491 -.00051093  00000+0 -48822-2 0  9998
2 51637  87.1863 342.1457 0000722  56.9695  14.7552 14.93653021  9618
ONEWEB-0444             
1 51638U 22012S   22096.58334491 -.01097954  00000+0 -30734+0 0  9998
2 51638  87.5090 343.5513 0017606  63.6714  88.1139 14.49137057  3526
ONEWEB-0445             
1 51639U 22012T   22096.83334491 -.01195263  00000+0 -33950+0 0  9992
2 51639  87.5111 343.4659 0016497  51.5117 187.4819 14.48724995  9549
ONEWEB-0446             
1 51640U 22012U   22096.83334491 -.01179253  00000+0 -33536+0 0  9995
2 51640  87.5059 343.4554 0017367  62.5107 219.0444 14.48611602  9540
ONEWEB-0448             
1 51641U 22012V   22096.91667824 -.01148444  00000+0 -35276+0 0  9995
2 51641  87.4821 343.4098 0018556  55.6082 137.5216 14.44814453  9531
